STARLINK-2022           
1 47643U 21012Z   24117.57353749  .00026147  00000+0  17679-2 0  9999
2 47643  53.0536 233.7506 0001707  76.9153 283.2027 15.06395965177457
